*******************************************************************************
JPL/HORIZONS                 169 Zelia (A876 SB)           2023-Sep-04 11:04:47
Rec #:     169 (+COV) Soln.date: 2023-Aug-22_08:54:13   # obs: 5522 (1876-2023)
 
IAU76/J2000 helio. ecliptic osc. elements (au, days, deg., period=Julian yrs):
 
  EPOCH=  2457057.5 ! 2015-Feb-04.00 (TDB)         Residual RMS= .29496
   EC= .1309173110241783   QR= 2.049193777566767   TP= 2456681.0985116628
   OM= 354.7823977715719   W=  334.4035292636237   IN= 5.500290045740981
   A= 2.357881250611098    MA= 102.4642846381033   ADIST= 2.66656872365543
   PER= 3.62069            N= .272220721           ANGMOM= .026187159
   DAN= 2.07274            DDN= 2.62772            L= 329.2888022
   B= -2.3733219           MOID= 1.04106998        TP= 2014-Jan-23.5985116628
 
Asteroid physical parameters (km, seconds, rotational period in hours):
   GM= n.a.                RAD= 18.7585            ROTPER= 14.537
   H= 9.59                 G= .150                 B-V= .848
                           ALBEDO= .188            STYP= Sl

ASTEROID comments: 
1: soln ref.= JPL#57, OCC=0
2: source=ORB
*******************************************************************************


*******************************************************************************
Ephemeris / API_USER Mon Sep  4 11:04:47 2023 Pasadena, USA      / Horizons
*******************************************************************************
Target body name: 169 Zelia (A876 SB)             {source: JPL#57}
Center body name: Solar System Barycenter (0)     {source: DE441}
Center-site name: BODY CENTER
*******************************************************************************
Start time      : A.D. 2023-Aug-12 00:00:00.0000 TDB
Stop  time      : A.D. 2023-Aug-13 00:00:00.0000 TDB
Step-size       : 2880 minutes
*******************************************************************************
Center geodetic : 0.0, 0.0, 0.0                   {E-lon(deg),Lat(deg),Alt(km)}
Center cylindric: 0.0, 0.0, 0.0                   {E-lon(deg),Dxy(km),Dz(km)}
Center radii    : (undefined)
Small perturbers: Yes                             {source: SB441-N16}
Output units    : KM-S
Calendar mode   : Mixed Julian/Gregorian
Output type     : GEOMETRIC cartesian states
Output format   : 2 (position and velocity)
Reference frame : Ecliptic of J2000.0
*******************************************************************************
Initial IAU76/J2000 heliocentric ecliptic osculating elements (au, days, deg.):
  EPOCH=  2457057.5 ! 2015-Feb-04.00 (TDB)         Residual RMS= .29496        
   EC= .1309173110241783   QR= 2.049193777566767   TP= 2456681.0985116628      
   OM= 354.7823977715719   W=  334.4035292636237   IN= 5.500290045740981       
  Equivalent ICRF heliocentric cartesian coordinates (au, au/d):
   X= 1.852917045898865E-01  Y= 2.147353106155878E+00  Z= 1.188075806526850E+00
  VX=-1.051015041012361E-02 VY= 1.901397259171464E-03 VZ= 9.456958537831708E-04
Asteroid physical parameters (km, seconds, rotational period in hours):        
   GM= n.a.                RAD= 18.7585            ROTPER= 14.537              
   H= 9.59                 G= .150                 B-V= .848                   
                           ALBEDO= .188            STYP= Sl                    
*******************************************************************************
JDTDB
   X     Y     Z
   VX    VY    VZ
*******************************************************************************
$$SOE
2460168.500000000 = A.D. 2023-Aug-12 00:00:00.0000 TDB 
 X =-3.835337908369229E+08 Y =-5.455988307412402E+07 Z =-8.554255676787775E+06
 VX= 4.078823756328992E+00 VY=-1.710261032316229E+01 VZ=-1.602685771810035E+00
$$EOE
*******************************************************************************
 
TIME

  Barycentric Dynamical Time ("TDB" or T_eph) output was requested. This
continuous coordinate time is equivalent to the relativistic proper time
of a clock at rest in a reference frame co-moving with the solar system
barycenter but outside the system's gravity well. It is the independent
variable in the solar system relativistic equations of motion.

  TDB runs at a uniform rate of one SI second per second and is independent
of irregularities in Earth's rotation.
 
CALENDAR SYSTEM

  Mixed calendar mode was active such that calendar dates after AD 1582-Oct-15
(if any) are in the modern Gregorian system. Dates prior to 1582-Oct-5 (if any)
are in the Julian calendar system, which is automatically extended for dates
prior to its adoption on 45-Jan-1 BC.  The Julian calendar is useful for
matching historical dates. The Gregorian calendar more accurately corresponds
to the Earth's orbital motion and seasons. A "Gregorian-only" calendar mode is
available if such physical events are the primary interest.

REFERENCE FRAME AND COORDINATES

  Ecliptic at the standard reference epoch

    Reference epoch: J2000.0
    X-Y plane: adopted Earth orbital plane at the reference epoch
               Note: IAU76 obliquity of 84381.448 arcseconds wrt ICRF X-Y plane
    X-axis   : ICRF
    Z-axis   : perpendicular to the X-Y plane in the directional (+ or -) sense
               of Earth's north pole at the reference epoch.

  Symbol meaning:

    JDTDB    Julian Day Number, Barycentric Dynamical Time
      X      X-component of position vector (km)
      Y      Y-component of position vector (km)
      Z      Z-component of position vector (km)
      VX     X-component of velocity vector (km/sec)                           
      VY     Y-component of velocity vector (km/sec)                           
      VZ     Z-component of velocity vector (km/sec)                           

ABERRATIONS AND CORRECTIONS

 Geometric state vectors have NO corrections or aberrations applied.

Computations by ...

    Solar System Dynamics Group, Horizons On-Line Ephemeris System
    4800 Oak Grove Drive, Jet Propulsion Laboratory
    Pasadena, CA  91109   USA

    General site: https://ssd.jpl.nasa.gov/
    Mailing list: https://ssd.jpl.nasa.gov/email_list.html
    System news : https://ssd.jpl.nasa.gov/horizons/news.html
    User Guide  : https://ssd.jpl.nasa.gov/horizons/manual.html
    Connect     : browser        https://ssd.jpl.nasa.gov/horizons/app.html#/x
                  API            https://ssd-api.jpl.nasa.gov/doc/horizons.html
                  command-line   telnet ssd.jpl.nasa.gov 6775
                  e-mail/batch   https://ssd.jpl.nasa.gov/ftp/ssd/hrzn_batch.txt
                  scripts        https://ssd.jpl.nasa.gov/ftp/ssd/SCRIPTS
    Author      : Jon.D.Giorgini@jpl.nasa.gov
*******************************************************************************
